NORAD_CAT_ID,OBJECT_NAME,OBJECT_TYPE,EPOCH,MEAN_MOTION,ECCENTRICITY,INCLINATION,RA_OF_ASC_NODE,ARG_OF_PERICENTER,MEAN_ANOMALY,BSTAR,MEAN_MOTION_DOT,MEAN_MOTION_DDOT,TLE_LINE0,TLE_LINE1,TLE_LINE2,SEMIMAJOR_AXIS,PERIOD,APOGEE,PERIGEE,DECAYED
50199.0,STARLINK-3270,PAYLOAD,2023-12-04 07:33:02,15.08831438,0.0001894,53.2187,348.8585,73.9021,286.2179,0.00076373,0.00011885,0.0,0 STARLINK-3270,1 50199U 21125AV  23338.31460975  .00011885  00000-0  76373-3 0  9991,2 50199  53.2187 348.8585 0001894  73.9021 286.2179 15.08831438111499,6917.907,95.438,541.082,538.461,0.0
50199.0,STARLINK-3270,PAYLOAD,2023-12-05 04:13:02,15.0886454,0.0001884,53.2185,344.9951,74.8262,285.2938,0.00089439,0.00013984,0.0,0 STARLINK-3270,1 50199U 21125AV  23339.17572198  .00013984  00000-0  89439-3 0  9996,2 50199  53.2185 344.9951 0001884  74.8262 285.2938 15.08864540111624,6917.805,95.436,540.974,538.367,0.0
50199.0,STARLINK-3270,PAYLOAD,2023-12-05 10:34:34,15.08878724,0.0001931,53.2185,343.8068,75.5147,284.606,0.0011349,0.00017839,0.0,0 STARLINK-3270,1 50199U 21125AV  23339.44067578  .00017839  00000-0  11349-2 0  9994,2 50199  53.2185 343.8068 0001931  75.5147 284.6060 15.08878724112140,6917.762,95.435,540.963,538.291,0.0
50199.0,STARLINK-3270,PAYLOAD,2023-12-06 04:03:48,15.08851631,0.0001834,53.2185,340.5349,80.8322,279.2877,0.00019038,2.744e-05,0.0,0 STARLINK-3270,1 50199U 21125AV  23340.16931549  .00002744  00000-0  19038-3 0  9996,2 50199  53.2185 340.5349 0001834  80.8322 279.2877 15.08851631111774,6917.845,95.437,540.979,538.441,0.0
50199.0,STARLINK-3270,PAYLOAD,2023-12-06 07:14:35,15.08853458,0.0001893,53.2184,339.9439,82.5393,277.5814,0.00033336,5.023e-05,0.0,0 STARLINK-3270,1 50199U 21125AV  23340.30179461  .00005023  00000-0  33336-3 0  9999,2 50199  53.2184 339.9439 0001893  82.5393 277.5814 15.08853458112274,6917.839,95.437,541.014,538.395,0.0
50199.0,STARLINK-3270,PAYLOAD,2023-12-07 03:54:36,15.08838272,0.00022,53.2181,336.0756,114.3011,245.8211,0.00059656,9.219e-05,0.0,0 STARLINK-3270,1 50199U 21125AV  23341.16291836  .00009219  00000-0  59656-3 0  9999,2 50199  53.2181 336.0756 0002200 114.3011 245.8211 15.08838272111922,6917.886,95.438,541.273,538.229,0.0
50199.0,STARLINK-3270,PAYLOAD,2023-12-07 05:29:59,15.08835599,0.0002082,53.2185,335.7785,111.9362,248.1852,0.00039861,6.061e-05,0.0,0 STARLINK-3270,1 50199U 21125AV  23341.22915886  .00006061  00000-0  39861-3 0  9992,2 50199  53.2185 335.7785 0002082 111.9362 248.1852 15.08835599112415,6917.894,95.438,541.199,538.319,0.0
50199.0,STARLINK-3270,PAYLOAD,2023-12-08 03:45:23,15.08839667,0.0002137,53.2186,331.6198,117.8866,242.2343,0.00024004,3.534e-05,0.0,0 STARLINK-3270,1 50199U 21125AV  23342.15652095  .00003534  00000-0  24004-3 0  9990,2 50199  53.2186 331.6198 0002137 117.8866 242.2343 15.08839667112076,6917.881,95.438,541.225,538.268,0.0
50199.0,STARLINK-3270,PAYLOAD,2023-12-08 08:31:32,15.08839642,0.0002032,53.2186,330.7219,100.633,259.4891,0.00022239,3.253e-05,0.0,0 STARLINK-3270,1 50199U 21125AV  23342.35524189  .00003253  00000-0  22239-3 0  9990,2 50199  53.2186 330.7219 0002032 100.6330 259.4891 15.08839642112587,6917.881,95.438,541.152,538.341,0.0
50199.0,STARLINK-3270,PAYLOAD,2023-12-09 08:22:19,15.08844467,0.0001846,53.2175,326.2575,93.7965,266.3238,0.00020057,2.906e-05,0.0,0 STARLINK-3270,1 50199U 21125AV  23343.34884027  .00002906  00000-0  20057-3 0  9990,2 50199  53.2175 326.2575 0001846  93.7965 266.3238 15.08844467112255,6917.867,95.437,541.009,538.455,0.0
50199.0,STARLINK-3270,PAYLOAD,2023-12-09 22:40:48,15.08842123,0.0001819,53.2166,323.586,99.7118,260.408,3.343e-05,2.44e-06,0.0,0 STARLINK-3270,1 50199U 21125AV  23343.94500066  .00000244  00000-0  33430-4 0  9997,2 50199  53.2166 323.5860 0001819  99.7118 260.4080 15.08842123112828,6917.874,95.437,540.997,538.481,0.0
50199.0,STARLINK-3270,PAYLOAD,2023-12-11 04:53:07,15.08845229,0.0001783,53.2171,317.9363,98.6423,261.4771,9.5308e-05,1.229e-05,0.0,0 STARLINK-3270,1 50199U 21125AV  23345.20355911  .00001229  00000-0  95308-4 0  9991,2 50199  53.2171 317.9363 0001783  98.6423 261.4771 15.08845229112532,6917.864,95.437,540.963,538.496,0.0
50199.0,STARLINK-3270,PAYLOAD,2023-12-12 03:08:31,15.08837474,0.0002075,53.2191,313.7739,110.4626,249.6589,4.0621e-05,3.58e-06,0.0,0 STARLINK-3270,1 50199U 21125AV  23346.13092475  .00000358  00000-0  40621-4 0  9997,2 50199  53.2191 313.7739 0002075 110.4626 249.6589 15.08837474112671,6917.888,95.438,541.189,538.318,0.0
50199.0,STARLINK-3270,PAYLOAD,2023-12-13 04:34:41,15.08843513,0.0001989,53.2189,309.0154,106.4824,253.6387,0.00012351,1.678e-05,0.0,0 STARLINK-3270,1 50199U 21125AV  23347.19076033  .00001678  00000-0  12351-3 0  9990,2 50199  53.2189 309.0154 0001989 106.4824 253.6387 15.08843513112835,6917.87,95.437,541.111,538.359,0.0
50199.0,STARLINK-3270,PAYLOAD,2023-12-14 02:50:06,15.08832762,0.0002054,53.2191,304.854,110.5458,249.5754,0.00017968,2.572e-05,0.0,0 STARLINK-3270,1 50199U 21125AV  23348.11812634  .00002572  00000-0  17968-3 0  9991,2 50199  53.2191 304.8540 0002054 110.5458 249.5754 15.08832762112974,6917.903,95.438,541.188,538.347,0.0
50199.0,STARLINK-3270,PAYLOAD,2023-12-15 04:16:15,15.08844909,0.0001865,53.2186,300.0959,97.2552,262.8652,7.2235e-05,8.62e-06,0.0,0 STARLINK-3270,1 50199U 21125AV  23349.17796248  .00000862  00000-0  72235-4 0  9999,2 50199  53.2186 300.0959 0001865  97.2552 262.8652 15.08844909113135,6917.865,95.437,541.021,538.44,0.0
50199.0,STARLINK-3270,PAYLOAD,2023-12-16 04:07:04,15.08833861,0.0001661,53.2178,295.6355,94.1253,265.9929,2.9001e-05,1.73e-06,0.0,0 STARLINK-3270,1 50199U 21125AV  23350.17157444  .00000173  00000-0  29001-4 0  9998,2 50199  53.2178 295.6355 0001661  94.1253 265.9929 15.08833861113285,6917.899,95.438,540.913,538.615,0.0
50199.0,STARLINK-3270,PAYLOAD,2023-12-17 02:22:27,15.08851489,0.0001597,53.2177,291.4725,84.6885,275.429,4.2294e-05,3.85e-06,0.0,0 STARLINK-3270,1 50199U 21125AV  23351.09892565  .00000385  00000-0  42294-4 0  9994,2 50199  53.2177 291.4725 0001597  84.6885 275.4290 15.08851489113421,6917.845,95.437,540.815,538.605,0.0
50199.0,STARLINK-3270,PAYLOAD,2023-12-18 02:13:14,15.08851287,0.0001686,53.2168,287.0123,83.2273,276.8911,0.00027997,4.172e-05,0.0,0 STARLINK-3270,1 50199U 21125AV  23352.09252612  .00004172  00000-0  27997-3 0  9998,2 50199  53.2168 287.0123 0001686  83.2273 276.8911 15.08851287113576,6917.846,95.437,540.877,538.545,0.0
50199.0,STARLINK-3270,PAYLOAD,2023-12-19 02:04:01,15.08834812,0.0001775,53.2172,282.5528,119.144,240.973,-4.9931e-05,-1.083e-05,0.0,0 STARLINK-3270,1 50199U 21125AV  23353.08613371 -.00001083  00000-0 -49931-4 0  9994,2 50199  53.2172 282.5528 0001775 119.1440 240.9730 15.08834812113727,6917.896,95.438,540.989,538.533,0.0
50199.0,STARLINK-3270,PAYLOAD,2023-12-20 00:19:25,15.08843841,0.0001435,53.218,278.3892,94.8601,265.2555,-5.2169e-06,-3.71e-06,0.0,0 STARLINK-3270,1 50199U 21125AV  23354.01349319 -.00000371  00000-0 -52169-5 0  9993,2 50199  53.2180 278.3892 0001435  94.8601 265.2555 15.08843841113866,6917.869,95.437,540.726,538.741,0.0
50199.0,STARLINK-3270,PAYLOAD,2023-12-20 22:34:49,15.08847206,0.0001364,53.2178,274.2255,90.8967,269.2181,0.00031006,4.651e-05,0.0,0 STARLINK-3270,1 50199U 21125AV  23354.94085220  .00004651  00000-0  31006-3 0  9991,2 50199  53.2178 274.2255 0001364  90.8967 269.2181 15.08847206114480,6917.858,95.437,540.667,538.78,0.0
50199.0,STARLINK-3270,PAYLOAD,2023-12-21 01:45:35,15.08855495,0.0001428,53.2175,273.6298,86.4214,273.6941,0.00043073,6.577e-05,0.0,0 STARLINK-3270,1 50199U 21125AV  23355.07332974  .00006577  00000-0  43073-3 0  9993,2 50199  53.2175 273.6298 0001428  86.4214 273.6941 15.08855495114026,6917.833,95.437,540.686,538.71,0.0
50199.0,STARLINK-3270,PAYLOAD,2023-12-21 22:25:36,15.08842239,0.0001351,53.2172,269.7668,91.8468,268.2679,-1.069e-06,-3.05e-06,0.0,0 STARLINK-3270,1 50199U 21125AV  23355.93445251 -.00000305  00000-0 -10690-5 0  9997,2 50199  53.2172 269.7668 0001351  91.8468 268.2679 15.08842239114633,6917.874,95.437,540.673,538.804,0.0
50199.0,STARLINK-3270,PAYLOAD,2023-12-22 01:36:22,15.0884651,0.0001415,53.217,269.1688,95.3906,264.7248,8.7888e-05,1.111e-05,0.0,0 STARLINK-3270,1 50199U 21125AV  23356.06693056  .00001111  00000-0  87888-4 0  9996,2 50199  53.2170 269.1688 0001415  95.3906 264.7248 15.08846510114172,6917.86,95.437,540.704,538.747,0.0
50199.0,STARLINK-3270,PAYLOAD,2023-12-22 22:16:23,15.08837653,0.0001518,53.2166,265.3011,91.8367,268.2799,4.5746e-05,4.4e-06,0.0,0 STARLINK-3270,1 50199U 21125AV  23356.92805300  .00000440  00000-0  45746-4 0  9999,2 50199  53.2166 265.3011 0001518  91.8367 268.2799 15.08837653114786,6917.888,95.438,540.803,538.702,0.0
50199.0,STARLINK-3270,PAYLOAD,2023-12-23 03:02:33,15.08840525,0.0001493,53.2171,264.4075,90.3381,269.7783,0.00019416,2.803e-05,0.0,0 STARLINK-3270,1 50199U 21125AV  23357.12677333  .00002803  00000-0  19416-3 0  9994,2 50199  53.2171 264.4075 0001493  90.3381 269.7783 15.08840525114336,6917.879,95.438,540.777,538.711,0.0
50199.0,STARLINK-3270,PAYLOAD,2023-12-23 22:07:11,15.08837621,0.000157,53.2172,260.8391,97.8493,262.2677,0.00013966,1.935e-05,0.0,0 STARLINK-3270,1 50199U 21125AV  23357.92165889  .00001935  00000-0  13966-3 0  9999,2 50199  53.2172 260.8391 0001570  97.8493 262.2677 15.08837621114939,6917.888,95.438,540.839,538.667,0.0
50199.0,STARLINK-3270,PAYLOAD,2023-12-24 02:53:20,15.08846883,0.0001403,53.2162,259.9476,100.1889,259.9262,0.00029329,4.384e-05,0.0,0 STARLINK-3270,1 50199U 21125AV  23358.12037476  .00004384  00000-0  29329-3 0  9993,2 50199  53.2162 259.9476 0001403 100.1889 259.9262 15.08846883114969,6917.859,95.437,540.695,538.754,0.0
50199.0,STARLINK-3270,PAYLOAD,2023-12-24 20:22:34,15.08844207,0.0001377,53.2156,256.6819,123.1095,237.003,0.00014321,1.992e-05,0.0,0 STARLINK-3270,1 50199U 21125AV  23358.84901486  .00001992  00000-0  14321-3 0  9991,2 50199  53.2156 256.6819 0001377 123.1095 237.0030 15.08844207114598,6917.868,95.437,540.685,538.78,0.0
